[
    {
        "Altitude(m)": 706716.7626128907,
        "Argument of Periapsis(deg)": 0.006834072711976239,
        "Eccentricity": 0.0,
        "Inclination(deg)": 45.0,
        "Latitude(deg)": 42.51997004392093,
        "Longitude(deg)": -44.662105898211635,
        "Mean Anomaly(deg)": -287.62557001151146,
        "RAAN(deg)": 349.9935488351251,
        "Satellite Name": "Constellation 1 1544",
        "Satellite Number": 1544,
        "Semi-Major Axis(m)": 7083131.272910544,
        "Time(s)": 114
    },
    {
        "Altitude(m)": 706720.6681996484,
        "Argument of Periapsis(deg)": 0.006894020718221645,
        "Eccentricity": 0.0,
        "Inclination(deg)": 45.0,
        "Latitude(deg)": 42.53758930304703,
        "Longitude(deg)": -44.58753075987704,
        "Mean Anomaly(deg)": -287.56486887126164,
        "RAAN(deg)": 349.9934922459595,
        "Satellite Name": "Constellation 1 1544",
        "Satellite Number": 1544,
        "Semi-Major Axis(m)": 7083131.272910544,
        "Time(s)": 115
    },
    {
        "Altitude(m)": 706724.5626071133,
        "Argument of Periapsis(deg)": 0.006953968724467052,
        "Eccentricity": 0.0,
        "Inclination(deg)": 45.0,
        "Latitude(deg)": 42.55515447214015,
        "Longitude(deg)": -44.51291146834262,
        "Mean Anomaly(deg)": -287.5041677310117,
        "RAAN(deg)": 349.99343565679396,
        "Satellite Name": "Constellation 1 1544",
        "Satellite Number": 1544,
        "Semi-Major Axis(m)": 7083131.272910544,
        "Time(s)": 116
    },
    {
        "Altitude(m)": 706728.4458121622,
        "Argument of Periapsis(deg)": 0.007013916730712457,
        "Eccentricity": 0.0,
        "Inclination(deg)": 45.0,
        "Latitude(deg)": 42.572665488225404,
        "Longitude(deg)": -44.438248107566466,
        "Mean Anomaly(deg)": -287.4434665907618,
        "RAAN(deg)": 349.9933790676284,
        "Satellite Name": "Constellation 1 1544",
        "Satellite Number": 1544,
        "Semi-Major Axis(m)": 7083131.272910544,
        "Time(s)": 117
    },
    {
        "Altitude(m)": 706732.3177917477,
        "Argument of Periapsis(deg)": 0.007073864736957864,
        "Eccentricity": 0.0,
        "Inclination(deg)": 45.0,
        "Latitude(deg)": 42.59012228843156,
        "Longitude(deg)": -44.36354076207082,
        "Mean Anomaly(deg)": -287.3827654505119,
        "RAAN(deg)": 349.9933224784628,
        "Satellite Name": "Constellation 1 1544",
        "Satellite Number": 1544,
        "Semi-Major Axis(m)": 7083131.272910544,
        "Time(s)": 118
    },
    {
        "Altitude(m)": 706736.1785228831,
        "Argument of Periapsis(deg)": 0.0071338127432032696,
        "Eccentricity": 0.0,
        "Inclination(deg)": 45.0,
        "Latitude(deg)": 42.60752480999216,
        "Longitude(deg)": -44.288789685038076,
        "Mean Anomaly(deg)": -287.322064310262,
        "RAAN(deg)": 349.9932658892973,
        "Satellite Name": "Constellation 1 1544",
        "Satellite Number": 1544,
        "Semi-Major Axis(m)": 7083131.272910544,
        "Time(s)": 119
    },
    {
        "Altitude(m)": 706740.0279826544,
        "Argument of Periapsis(deg)": 0.007193760749448674,
        "Eccentricity": 0.0,
        "Inclination(deg)": 45.0,
        "Latitude(deg)": 42.62487299024693,
        "Longitude(deg)": -44.21399462592432,
        "Mean Anomaly(deg)": -287.2613631700121,
        "RAAN(deg)": 349.99320930013164,
        "Satellite Name": "Constellation 1 1544",
        "Satellite Number": 1544,
        "Semi-Major Axis(m)": 7083131.272910544,
        "Time(s)": 120
    },
    {
        "Altitude(m)": 706743.8661482214,
        "Argument of Periapsis(deg)": 0.007253708755694079,
        "Eccentricity": 0.0,
        "Inclination(deg)": 45.0,
        "Latitude(deg)": 42.64216676664157,
        "Longitude(deg)": -44.13915583904006,
        "Mean Anomaly(deg)": -287.2006620297622,
        "RAAN(deg)": 349.9931527109661,
        "Satellite Name": "Constellation 1 1544",
        "Satellite Number": 1544,
        "Semi-Major Axis(m)": 7083131.272910544,
        "Time(s)": 121
    },
    {
        "Altitude(m)": 706747.6929968119,
        "Argument of Periapsis(deg)": 0.0073136567619394854,
        "Eccentricity": 0.0,
        "Inclination(deg)": 45.0,
        "Latitude(deg)": 42.659406076729496,
        "Longitude(deg)": -44.06427341116325,
        "Mean Anomaly(deg)": -287.1399608895123,
        "RAAN(deg)": 349.99309612180053,
        "Satellite Name": "Constellation 1 1544",
        "Satellite Number": 1544,
        "Semi-Major Axis(m)": 7083131.272910544,
        "Time(s)": 122
    },
    {
        "Altitude(m)": 706751.508505716,
        "Argument of Periapsis(deg)": 0.0073736047681848904,
        "Eccentricity": 0.0,
        "Inclination(deg)": 45.0,
        "Latitude(deg)": 42.67659085817243,
        "Longitude(deg)": -43.98934742963673,
        "Mean Anomaly(deg)": -287.0792597492624,
        "RAAN(deg)": 349.99303953263495,
        "Satellite Name": "Constellation 1 1544",
        "Satellite Number": 1544,
        "Semi-Major Axis(m)": 7083131.272910544,
        "Time(s)": 123
    },
    {
        "Altitude(m)": 706755.3126523112,
        "Argument of Periapsis(deg)": 0.007433552774430298,
        "Eccentricity": 0.0,
        "Inclination(deg)": 45.0,
        "Latitude(deg)": 42.69372104874143,
        "Longitude(deg)": -43.914377982367775,
        "Mean Anomaly(deg)": -287.01855860901253,
        "RAAN(deg)": 349.99298294346943,
        "Satellite Name": "Constellation 1 1544",
        "Satellite Number": 1544,
        "Semi-Major Axis(m)": 7083131.272910544,
        "Time(s)": 124
    },
    {
        "Altitude(m)": 706759.1054140257,
        "Argument of Periapsis(deg)": 0.007493500780675703,
        "Eccentricity": 0.0,
        "Inclination(deg)": 45.0,
        "Latitude(deg)": 42.71079658631761,
        "Longitude(deg)": -43.839365157828844,
        "Mean Anomaly(deg)": -286.9578574687626,
        "RAAN(deg)": 349.99292635430385,
        "Satellite Name": "Constellation 1 1544",
        "Satellite Number": 1544,
        "Semi-Major Axis(m)": 7083131.272910544,
        "Time(s)": 125
    },
    {
        "Altitude(m)": 706762.886768367,
        "Argument of Periapsis(deg)": 0.007553448786921108,
        "Eccentricity": 0.0,
        "Inclination(deg)": 45.0,
        "Latitude(deg)": 42.72781740889313,
        "Longitude(deg)": -43.76430921315378,
        "Mean Anomaly(deg)": -286.89715632851266,
        "RAAN(deg)": 349.99286976513827,
        "Satellite Name": "Constellation 1 1544",
        "Satellite Number": 1544,
        "Semi-Major Axis(m)": 7083131.272910544,
        "Time(s)": 126
    },
    {
        "Altitude(m)": 706766.6566929235,
        "Argument of Periapsis(deg)": 0.007613396793166514,
        "Eccentricity": 0.0,
        "Inclination(deg)": 45.0,
        "Latitude(deg)": 42.74478345457248,
        "Longitude(deg)": -43.689209901751546,
        "Mean Anomaly(deg)": -286.83645518826285,
        "RAAN(deg)": 349.9928131759727,
        "Satellite Name": "Constellation 1 1544",
        "Satellite Number": 1544,
        "Semi-Major Axis(m)": 7083131.272910544,
        "Time(s)": 127
    },
    {
        "Altitude(m)": 706770.4151653332,
        "Argument of Periapsis(deg)": 0.007673344799411918,
        "Eccentricity": 0.0,
        "Inclination(deg)": 45.0,
        "Latitude(deg)": 42.761694661572676,
        "Longitude(deg)": -43.61406748188627,
        "Mean Anomaly(deg)": -286.77575404801286,
        "RAAN(deg)": 349.9927565868071,
        "Satellite Name": "Constellation 1 1544",
        "Satellite Number": 1544,
        "Semi-Major Axis(m)": 7083131.272910544,
        "Time(s)": 128
    },
    {
        "Altitude(m)": 706774.1621633233,
        "Argument of Periapsis(deg)": 0.007733292805657325,
        "Eccentricity": 0.0,
        "Inclination(deg)": 45.0,
        "Latitude(deg)": 42.778550968224565,
        "Longitude(deg)": -43.53888204429129,
        "Mean Anomaly(deg)": -286.71505290776304,
        "RAAN(deg)": 349.9926999976416,
        "Satellite Name": "Constellation 1 1544",
        "Satellite Number": 1544,
        "Semi-Major Axis(m)": 7083131.272910544,
        "Time(s)": 129
    },
    {
        "Altitude(m)": 706777.897664678,
        "Argument of Periapsis(deg)": 0.00779324081190273,
        "Eccentricity": 0.0,
        "Inclination(deg)": 45.0,
        "Latitude(deg)": 42.79535231297375,
        "Longitude(deg)": -43.46365368026479,
        "Mean Anomaly(deg)": -286.6543517675131,
        "RAAN(deg)": 349.992643408476,
        "Satellite Name": "Constellation 1 1544",
        "Satellite Number": 1544,
        "Semi-Major Axis(m)": 7083131.272910544,
        "Time(s)": 130
    },
    {
        "Altitude(m)": 706781.6216472589,
        "Argument of Periapsis(deg)": 0.007853188818148135,
        "Eccentricity": 0.0,
        "Inclination(deg)": 45.0,
        "Latitude(deg)": 42.81209863438133,
        "Longitude(deg)": -43.388382481670945,
        "Mean Anomaly(deg)": -286.59365062726323,
        "RAAN(deg)": 349.99258681931036,
        "Satellite Name": "Constellation 1 1544",
        "Satellite Number": 1544,
        "Semi-Major Axis(m)": 7083131.272910544,
        "Time(s)": 131
    },
    {
        "Altitude(m)": 706785.3340890005,
        "Argument of Periapsis(deg)": 0.007913136824393542,
        "Eccentricity": 0.0,
        "Inclination(deg)": 45.0,
        "Latitude(deg)": 42.828789871125004,
        "Longitude(deg)": -43.3130685409392,
        "Mean Anomaly(deg)": -286.5329494870133,
        "RAAN(deg)": 349.99253023014484,
        "Satellite Name": "Constellation 1 1544",
        "Satellite Number": 1544,
        "Semi-Major Axis(m)": 7083131.272910544,
        "Time(s)": 132
    }
]